0 PSLV DEB
1 29104U 01049PN  13283.82785688  .00005354  00000-0  49727-3 0  4599
2 29104 097.5156 299.4897 0033494 341.5542 018.5206 14.94362743493164
0 PSLV DEB
1 29104U 01049PN  13289.25145994  .00006365  00000-0  58857-3 0  4601
2 29104 097.5146 304.6769 0034622 324.3697 035.6539 14.94435954493977
0 PSLV DEB
1 29104U 01049PN  13289.85404094  .00006480  00000-0  59965-3 0  4616
2 29104 097.5190 305.2617 0032786 322.4630 037.4530 14.94445168494060
0 PSLV DEB
1 29104U 01049PN  13291.79574328  .00006790  00000-0  62723-3 0  4621
2 29104 097.5174 307.1229 0033805 316.9923 042.9152 14.94475410494354
0 PSLV DEB
1 29104U 01049PN  13293.26872177  .00007292  00000-0  67401-3 0  4635
2 29104 097.5182 308.5316 0030727 303.3455 056.6204 14.94503424494576
0 PSLV DEB
1 29104U 01049PN  13295.81289519  .00007508  00000-0  69366-3 0  4643
2 29104 097.5220 310.9714 0029106 293.1999 066.6651 14.94544450494959
